NORAD_CAT_ID,OBJECT_NAME,OBJECT_TYPE,EPOCH,MEAN_MOTION,ECCENTRICITY,INCLINATION,RA_OF_ASC_NODE,ARG_OF_PERICENTER,MEAN_ANOMALY,BSTAR,MEAN_MOTION_DOT,MEAN_MOTION_DDOT,TLE_LINE0,TLE_LINE1,TLE_LINE2,SEMIMAJOR_AXIS,PERIOD,APOGEE,PERIGEE,DECAYED
50183.0,STARLINK-3281,PAYLOAD,2022-01-19 14:00:01,15.73272985,0.0001161,53.216,206.9277,80.5893,324.4013,-0.00035694,-0.00050569,0.0,0 STARLINK-3281,1 50183U 21125AD  22019.58334491 -.00050569  00000-0 -35694-3 0  9996,2 50183  53.2160 206.9277 0001161  80.5893 324.4013 15.73272985  5260,6727.687,91.529,350.333,348.771,0.0
50183.0,STARLINK-3281,PAYLOAD,2022-01-19 22:00:00,15.73183304,0.0001127,53.2158,205.2799,65.9484,68.0509,0.00052967,0.00074322,0.0,0 STARLINK-3281,1 50183U 21125AD  22019.91667824  .00074322  00000-0  52967-3 0  9995,2 50183  53.2158 205.2799 0001127  65.9484  68.0509 15.73183304  3695,6727.943,91.534,350.566,349.05,0.0
50183.0,STARLINK-3281,PAYLOAD,2022-01-20 06:00:00,15.73262377,0.0001032,53.2156,203.6287,75.3818,147.55700000000004,-0.00069807,-0.00097716,0.0,0 STARLINK-3281,1 50183U 21125AD  22020.25001157 -.00097716  00000-0 -69807-3 0  9990,2 50183  53.2156 203.6287 0001032  75.3818 147.5570 15.73262377  5374,6727.717,91.53,350.277,348.88800000000015,0.0
50183.0,STARLINK-3281,PAYLOAD,2022-01-20 14:00:01,15.73184263,0.0001017,53.2159,201.9791,79.4297,232.4559,-0.00036966,-0.00052142,0.0,0 STARLINK-3281,1 50183U 21125AD  22020.58334491 -.00052142  00000-0 -36966-3 0  9990,2 50183  53.2159 201.9791 0001017  79.4297 232.4559 15.73184263  3711,6727.94,91.534,350.48900000000015,349.121,0.0
50183.0,STARLINK-3281,PAYLOAD,2022-01-20 22:00:00,15.73084064,8.87e-05,53.2161,200.3318,66.5493,334.157,0.0005517,0.00077135,0.0,0 STARLINK-3281,1 50183U 21125AD  22020.91667824  .00077135  00000-0  55170-3 0  9991,2 50183  53.2161 200.3318 0000887  66.5493 334.1570 15.73084064  5477,6728.226,91.54,350.68800000000016,349.494,0.0
50183.0,STARLINK-3281,PAYLOAD,2022-01-21 14:00:01,15.73229048,0.0001114,53.2166,197.0314,77.7842,140.6058,6.745e-05,8.868e-05,0.0,0 STARLINK-3281,1 50183U 21125AD  22021.58334491  .00008868  00000-0  67450-4 0  9998,2 50183  53.2166 197.0314 0001114  77.7842 140.6058 15.73229048  3669,6727.812,91.531,350.427,348.92800000000005,0.0
50183.0,STARLINK-3281,PAYLOAD,2022-01-21 22:00:00,15.73212596,0.0001213,53.2163,195.3836,63.724,243.6372,0.00053338,0.00074947,0.0,0 STARLINK-3281,1 50183U 21125AD  22021.91667824  .00074947  00000-0  53338-3 0  9994,2 50183  53.2163 195.3836 0001213  63.7240 243.6372 15.73212596  3699,6727.859,91.532,350.54,348.908,0.0
50183.0,STARLINK-3281,PAYLOAD,2022-01-22 06:00:00,15.73266878,0.0001126,53.2162,193.732,75.0164,321.3247,-3.1854000000000004e-05,-5.101e-05,0.0,0 STARLINK-3281,1 50183U 21125AD  22022.25001157 -.00005101  00000-0 -31854-4 0  9991,2 50183  53.2162 193.7320 0001126  75.0164 321.3247 15.73266878  5680,6727.705,91.529,350.327,348.81199999999984,0.0
50183.0,STARLINK-3281,PAYLOAD,2022-01-22 14:00:01,15.73254541,0.0001249,53.2164,192.0828,76.0033,49.3502,-9.4309e-05,-0.00013865,0.0,0 STARLINK-3281,1 50183U 21125AD  22022.58334491 -.00013865  00000-0 -94309-4 0  9997,2 50183  53.2164 192.0828 0001249  76.0033  49.3502 15.73254541  3671,6727.74,91.53,350.445,348.764,0.0
50183.0,STARLINK-3281,PAYLOAD,2022-01-22 22:00:00,15.73242211,0.0001209,53.2166,190.4349,61.1833,153.1706,-9.5101e-05,-0.00013969,0.0,0 STARLINK-3281,1 50183U 21125AD  22022.91667824 -.00013969  00000-0 -95101-4 0  9999,2 50183  53.2166 190.4349 0001209  61.1833 153.1706 15.73242211  3684,6727.775,91.531,350.45300000000015,348.826,0.0
50183.0,STARLINK-3281,PAYLOAD,2022-01-23 06:00:00,15.73225587,9.36e-05,53.2169,188.7833,64.9044,238.4223,-0.00030339,-0.00043026,0.0,0 STARLINK-3281,1 50183U 21125AD  22023.25001157 -.00043026  00000-0 -30339-3 0  9996,2 50183  53.2169 188.7833 0000936  64.9044 238.4223 15.73225587  5844,6727.821999999999,91.532,350.31699999999995,349.05800000000005,0.0
50183.0,STARLINK-3281,PAYLOAD,2022-01-23 14:00:01,15.73204866,9.54e-05,53.217,187.1342,58.9273,333.3326,-2.0827e-05,-3.542e-05,0.0,0 STARLINK-3281,1 50183U 21125AD  22023.58334491 -.00003542  00000-0 -20827-4 0  9993,2 50183  53.2170 187.1342 0000954  58.9273 333.3326 15.73204866  3698,6727.880999999999,91.533,350.38800000000015,349.10400000000016,0.0
50183.0,STARLINK-3281,PAYLOAD,2022-01-23 22:00:00,15.73201691,0.0001145,53.2165,185.4862,49.2202,71.9796,0.00037066,0.00051724,0.0,0 STARLINK-3281,1 50183U 21125AD  22023.91667824  .00051724  00000-0  37066-3 0  9994,2 50183  53.2165 185.4862 0001145  49.2202  71.9796 15.73201691  5958,6727.89,91.533,350.526,348.985,0.0
50183.0,STARLINK-3281,PAYLOAD,2022-01-24 06:00:02,15.73178518,0.0001009,53.2164,183.8347,60.1688,150.0407,0.00046812,0.0006553,0.0,0 STARLINK-3281,1 50183U 21125AD  22024.25002315  .00065530  00000-0  46812-3 0  9999,2 50183  53.2164 183.8347 0001009  60.1688 150.0407 15.73178518  6002,6727.956,91.534,350.5,349.14300000000014,0.0
50183.0,STARLINK-3281,PAYLOAD,2022-01-24 14:00:01,15.73254278,9.82e-05,53.2165,182.1861,57.5614,241.4988,-0.00074388,-0.00103974,0.0,0 STARLINK-3281,1 50183U 21125AD  22024.58334491 -.00103974  00000-0 -74388-3 0  9994,2 50183  53.2165 182.1861 0000982  57.5614 241.4988 15.73254278  6056,6727.74,91.53,350.266,348.945,0.0
50183.0,STARLINK-3281,PAYLOAD,2022-01-24 22:00:00,15.73164826,0.0001066,53.2164,180.5379,39.4899,348.5283,0.00047914,0.0006706,0.0,0 STARLINK-3281,1 50183U 21125AD  22024.91667824  .00067060  00000-0  47914-3 0  9998,2 50183  53.2164 180.5379 0001066  39.4899 348.5283 15.73164826  6101,6727.995,91.535,350.57800000000015,349.14300000000014,0.0
50183.0,STARLINK-3281,PAYLOAD,2022-01-25 14:00:01,15.73191889,0.0001278,53.2168,177.2377,52.5316,153.3443,-0.0001667,-0.0002394,0.0,0 STARLINK-3281,1 50183U 21125AD  22025.58334491 -.00023940  00000-0 -16670-3 0  9999,2 50183  53.2168 177.2377 0001278  52.5316 153.3443 15.73191889  6212,6727.918000000002,91.534,350.64300000000014,348.923,0.0
50183.0,STARLINK-3281,PAYLOAD,2022-01-25 22:00:00,15.7318554,0.0001406,53.2162,175.5893,44.5542,250.2477,0.00046433,0.00065011,0.0,0 STARLINK-3281,1 50183U 21125AD  22025.91667824  .00065011  00000-0  46433-3 0  9998,2 50183  53.2162 175.5893 0001406  44.5542 250.2477 15.73185540  6261,6727.936,91.534,350.747,348.855,0.0
50183.0,STARLINK-3281,PAYLOAD,2022-01-26 14:00:01,15.73261708,0.0001439,53.2161,172.2894,52.7321,59.9948,-0.00040776,-0.00057608,0.0,0 STARLINK-3281,1 50183U 21125AD  22026.58334491 -.00057608  00000-0 -40776-3 0  9992,2 50183  53.2161 172.2894 0001439  52.7321  59.9948 15.73261708  6377,6727.719,91.53,350.552,348.616,0.0
50183.0,STARLINK-3281,PAYLOAD,2022-01-26 21:08:48,15.73234519,0.0001801,53.2164,170.8144,59.842,300.2778,0.00011866,0.00016089,0.0,0 STARLINK-3281,1 50183U 21125AD  22026.88111406  .00016089  00000-0  11866-3 0  9998,2 50183  53.2164 170.8144 0001801  59.8420 300.2778 15.73234519  9559,6727.797,91.531,350.87300000000016,348.45,0.0
50183.0,STARLINK-3281,PAYLOAD,2022-01-26 22:00:00,15.7297854,0.000112,53.2167,170.6274,71.9335,129.5774,0.0025955,0.003769,0.0,0 STARLINK-3281,1 50183U 21125AD  22026.91667824  .00376900  00000-0  25955-2 0  9996,2 50183  53.2167 170.6274 0001120  71.9335 129.5774 15.72978540  6427,6728.526999999999,91.546,351.145,349.63800000000015,0.0
50183.0,STARLINK-3281,PAYLOAD,2022-01-27 04:00:00,15.73179267,0.0001324,53.2165,169.4018,46.6814,131.6778,0.00036679,0.00051124,0.0,0 STARLINK-3281,1 50183U 21125AD  22027.16667824  .00051124  00000-0  36679-3 0  9998,2 50183  53.2165 169.4018 0001324  46.6814 131.6778 15.73179267  6466,6727.954000000002,91.534,350.71,348.92900000000014,0.0
50183.0,STARLINK-3281,PAYLOAD,2022-01-27 13:55:05,15.73223114,0.0001597,53.2164,167.3568,45.7426,314.3725,0.00014694,0.00020071,0.0,0 STARLINK-3281,1 50183U 21125AD  22027.57992111  .00020071  00000-0  14694-3 0  9993,2 50183  53.2164 167.3568 0001597  45.7426 314.3725 15.73223114  9661,6727.829000000002,91.532,350.769,348.62,0.0
50183.0,STARLINK-3281,PAYLOAD,2022-01-27 21:32:29,15.73208341,0.0001514,53.2163,165.7849,43.4726,316.6414,1.7494000000000002e-05,1.836e-05,0.0,0 STARLINK-3281,1 50183U 21125AD  22027.89756039  .00001836  00000-0  17494-4 0  9995,2 50183  53.2163 165.7849 0001514  43.4726 316.6414 15.73208341  9712,6727.871,91.533,350.755,348.718,0.0
50183.0,STARLINK-3281,PAYLOAD,2022-01-27 22:00:00,15.73183712,0.0001496,53.2161,165.6918,34.733000000000004,73.7291,0.00029226,0.00040566,0.0,0 STARLINK-3281,1 50183U 21125AD  22027.91667824  .00040566  00000-0  29226-3 0  9999,2 50183  53.2161 165.6918 0001496  34.7330  73.7291 15.73183712  6589,6727.941999999999,91.534,350.81300000000016,348.8,0.0
50183.0,STARLINK-3281,PAYLOAD,2022-01-28 10:00:00,15.73186192,0.0001438,53.2164,163.2161,48.4539,13.3975,-1.9742e-05,-3.388e-05,0.0,0 STARLINK-3281,1 50183U 21125AD  22028.41667824 -.00003388  00000-0 -19742-4 0  9991,2 50183  53.2164 163.2161 0001438  48.4539  13.3975 15.73186192  6657,6727.935,91.534,350.767,348.832,0.0
50183.0,STARLINK-3281,PAYLOAD,2022-01-28 14:00:01,15.73180428,0.00016,53.2162,162.3926,44.563,241.7447,5.7427e-05,7.44e-05,0.0,0 STARLINK-3281,1 50183U 21125AD  22028.58334491  .00007440  00000-0  57427-4 0  9993,2 50183  53.2162 162.3926 0001600  44.5630 241.7447 15.73180428  3692,6727.951,91.534,350.892,348.74,0.0
50183.0,STARLINK-3281,PAYLOAD,2022-01-28 22:00:00,15.73204028,0.0001691,53.2162,160.7435,38.0291,337.1902,0.0002703,0.00037491,0.0,0 STARLINK-3281,1 50183U 21125AD  22028.91667824  .00037491  00000-0  27030-3 0  9994,2 50183  53.2162 160.7435 0001691  38.0291 337.1902 15.73204028  6737,6727.884,91.533,350.886,348.611,0.0
50183.0,STARLINK-3281,PAYLOAD,2022-01-29 14:00:01,15.732169699999998,0.0001686999999999,53.217,157.444,36.6605,156.4743,-0.00013493,-0.00019528,0.0,0 STARLINK-3281,1 50183U 21125AD  22029.58334491 -.00019528  00000-0 -13493-3 0  9990,2 50183  53.2170 157.4440 0001687  36.6605 156.4743 15.73216970  6849,6727.847,91.532,350.847,348.577,0.0
